{
  "type": "FeatureCollection",
  "features": [
    {
      "type": "Feature",
      "geometry": {
        "type": "LineString",
        "coordinates": [
          [
            109.45,
            4.21
          ],
          [
            109.3089,
            4.1389
          ],
          [
            109.1678,
            4.0677
          ],
          [
            109.0267,
            3.9966
          ],
          [
            108.8856,
            3.9254
          ],
          [
            108.7446,
            3.8542
          ],
          [
            108.6036,
            3.7829
          ],
          [
            108.4626,
            3.7117
          ],
          [
            108.3216,
            3.6404
          ],
          [
            108.1806,
            3.5691
          ],
          [
            108.0397,
            3.4977
          ],
          [
            107.8988,
            3.4264
          ],
          [
            107.7579,
            3.355
          ],
          [
            107.6171,
            3.2836
          ],
          [
            107.4762,
            3.2122
          ],
          [
            107.3354,
            3.1408
          ],
          [
            107.1946,
            3.0693
          ],
          [
            107.0538,
            2.9979
          ],
          [
            106.9131,
            2.9264
          ],
          [
            106.7723,
            2.8549
          ],
          [
            106.6316,
            2.7834
          ],
          [
            106.4909,
            2.7118
          ],
          [
            106.3502,
            2.6403
          ],
          [
            106.2095,
            2.5687
          ],
          [
            106.0688,
            2.4971
          ],
          [
            105.9282,
            2.4255
          ],
          [
            105.7876,
            2.3539
          ],
          [
            105.6469,
            2.2823
          ],
          [
            105.5063,
            2.2106
          ],
          [
            105.3657,
            2.139
          ],
          [
            105.2252,
            2.0673
          ],
          [
            105.0846,
            1.9956
          ],
          [
            104.944,
            1.9239
          ],
          [
            104.8035,
            1.8522
          ],
          [
            104.663,
            1.7805
          ],
          [
            104.5224,
            1.7088
          ],
          [
            104.3819,
            1.637
          ],
          [
            104.2414,
            1.5653
          ],
          [
            104.101,
            1.4935
          ],
          [
            103.9605,
            1.4218
          ],
          [
            103.82,
            1.35
          ]
        ]
      },
      "properties": {
        "partner": "Singapore",
        "exports_usd_bn": 48.09,
        "imports_usd_bn": 31.53,
        "balance_usd_bn": 16.56,
        "trade_type": "Export-heavy",
        "stroke_width": 9.0,
        "dest_lat": 1.35,
        "dest_lon": 103.82
      }
    },
    {
      "type": "Feature",
      "geometry": {
        "type": "LineString",
        "coordinates": [
          [
            109.45,
            4.21
          ],
          [
            109.3374,
            5.0026
          ],
          [
            109.2245,
            5.7952
          ],
          [
            109.1113,
            6.5877
          ],
          [
            108.9978,
            7.3802
          ],
          [
            108.8838,
            8.1727
          ],
          [
            108.7694,
            8.9652
          ],
          [
            108.6545,
            9.7576
          ],
          [
            108.539,
            10.55
          ],
          [
            108.423,
            11.3423
          ],
          [
            108.3063,
            12.1346
          ],
          [
            108.1889,
            12.9269
          ],
          [
            108.0707,
            13.719
          ],
          [
            107.9518,
            14.5112
          ],
          [
            107.832,
            15.3033
          ],
          [
            107.7113,
            16.0953
          ],
          [
            107.5896,
            16.8872
          ],
          [
            107.4669,
            17.6791
          ],
          [
            107.3431,
            18.4709
          ],
          [
            107.2182,
            19.2626
          ],
          [
            107.092,
            20.0542
          ],
          [
            106.9646,
            20.8458
          ],
          [
            106.8358,
            21.6372
          ],
          [
            106.7056,
            22.4286
          ],
          [
            106.5739,
            23.2198
          ],
          [
            106.4407,
            24.0109
          ],
          [
            106.3058,
            24.8019
          ],
          [
            106.1691,
            25.5928
          ],
          [
            106.0307,
            26.3836
          ],
          [
            105.8903,
            27.1742
          ],
          [
            105.7479,
            27.9647
          ],
          [
            105.6035,
            28.755
          ],
          [
            105.4568,
            29.5452
          ],
          [
            105.3078,
            30.3352
          ],
          [
            105.1564,
            31.1251
          ],
          [
            105.0024,
            31.9147
          ],
          [
            104.8458,
            32.7042
          ],
          [
            104.6864,
            33.4935
          ],
          [
            104.5241,
            34.2825
          ],
          [
            104.3587,
            35.0714
          ],
          [
            104.19,
            35.86
          ]
        ]
      },
      "properties": {
        "partner": "China",
        "exports_usd_bn": 42.15,
        "imports_usd_bn": 56.71,
        "balance_usd_bn": -14.56,
        "trade_type": "Import-heavy",
        "stroke_width": 7.92,
        "dest_lat": 35.86,
        "dest_lon": 104.19
      }
    },
    {
      "type": "Feature",
      "geometry": {
        "type": "LineString",
        "coordinates": [
          [
            109.45,
            4.21
          ],
          [
            110.9855,
            7.1496
          ],
          [
            112.5409,
            10.084
          ],
          [
            114.1249,
            13.011
          ],
          [
            115.7467,
            15.9281
          ],
          [
            117.4162,
            18.8328
          ],
          [
            119.1444,
            21.7221
          ],
          [
            120.9433,
            24.5928
          ],
          [
            122.8263,
            27.4411
          ],
          [
            124.8087,
            30.2627
          ],
          [
            126.9078,
            33.0527
          ],
          [
            129.1434,
            35.8053
          ],
          [
            131.5382,
            38.5135
          ],
          [
            134.1185,
            41.1692
          ],
          [
            136.9141,
            43.7625
          ],
          [
            139.9594,
            46.2815
          ],
          [
            143.2928,
            48.7119
          ],
          [
            146.9569,
            51.0366
          ],
          [
            150.9969,
            53.2349
          ],
          [
            155.4582,
            55.2821
          ],
          [
            160.382,
            57.1495
          ],
          [
            165.7974,
            58.8044
          ],
          [
            171.712,
            60.2109
          ],
          [
            178.0998,
            61.3322
          ],
          [
            -175.1089,
            62.1334
          ],
          [
            -168.0311,
            62.5865
          ],
          [
            -160.8237,
            62.6739
          ],
          [
            -153.6634,
            62.3921
          ],
          [
            -146.7194,
            61.7523
          ],
          [
            -140.1294,
            60.7781
          ],
          [
            -133.9857,
            59.5017
          ],
          [
            -128.3338,
            57.9595
          ],
          [
            -123.1805,
            56.1881
          ],
          [
            -118.5054,
            54.222
          ],
          [
            -114.272,
            52.0917
          ],
          [
            -110.4362,
            49.8239
          ],
          [
            -106.9521,
            47.4411
          ],
          [
            -103.7759,
            44.9619
          ],
          [
            -100.8669,
            42.4021
          ],
          [
            -98.1889,
            39.7745
          ],
          [
            -95.71,
            37.09
          ]
        ]
      },
      "properties": {
        "partner": "United States",
        "exports_usd_bn": 35.46,
        "imports_usd_bn": 19.53,
        "balance_usd_bn": 15.93,
        "trade_type": "Export-heavy",
        "stroke_width": 6.71,
        "dest_lat": 37.09,
        "dest_lon": -95.71
      }
    },
    {
      "type": "Feature",
      "geometry": {
        "type": "LineString",
        "coordinates": [
          [
            109.45,
            4.21
          ],
          [
            109.5599,
            4.6655
          ],
          [
            109.6699,
            5.1211
          ],
          [
            109.7801,
            5.5766
          ],
          [
            109.8905,
            6.0321
          ],
          [
            110.0011,
            6.4875
          ],
          [
            110.1118,
            6.943
          ],
          [
            110.2228,
            7.3984
          ],
          [
            110.334,
            7.8538
          ],
          [
            110.4454,
            8.3091
          ],
          [
            110.5571,
            8.7645
          ],
          [
            110.6691,
            9.2197
          ],
          [
            110.7814,
            9.675
          ],
          [
            110.8939,
            10.1302
          ],
          [
            111.0068,
            10.5854
          ],
          [
            111.12,
            11.0406
          ],
          [
            111.2336,
            11.4957
          ],
          [
            111.3475,
            11.9507
          ],
          [
            111.4619,
            12.4057
          ],
          [
            111.5766,
            12.8607
          ],
          [
            111.6917,
            13.3156
          ],
          [
            111.8073,
            13.7705
          ],
          [
            111.9233,
            14.2253
          ],
          [
            112.0398,
            14.68
          ],
          [
            112.1568,
            15.1347
          ],
          [
            112.2743,
            15.5893
          ],
          [
            112.3923,
            16.0439
          ],
          [
            112.5109,
            16.4984
          ],
          [
            112.63,
            16.9529
          ],
          [
            112.7496,
            17.4072
          ],
          [
            112.8699,
            17.8615
          ],
          [
            112.9908,
            18.3157
          ],
          [
            113.1123,
            18.7699
          ],
          [
            113.2345,
            19.224
          ],
          [
            113.3574,
            19.6779
          ],
          [
            113.481,
            20.1318
          ],
          [
            113.6052,
            20.5857
          ],
          [
            113.7303,
            21.0394
          ],
          [
            113.856,
            21.493
          ],
          [
            113.9826,
            21.9466
          ],
          [
            114.11,
            22.4
          ]
        ]
      },
      "properties": {
        "partner": "Hong Kong, China",
        "exports_usd_bn": 19.7,
        "imports_usd_bn": 3.34,
        "balance_usd_bn": 16.36,
        "trade_type": "Export-heavy",
        "stroke_width": 3.86,
        "dest_lat": 22.4,
        "dest_lon": 114.11
      }
    },
    {
      "type": "Feature",
      "geometry": {
        "type": "LineString",
        "coordinates": [
          [
            109.45,
            4.21
          ],
          [
            110.0611,
            5.0508
          ],
          [
            110.6738,
            5.8911
          ],
          [
            111.2884,
            6.7307
          ],
          [
            111.9051,
            7.5695
          ],
          [
            112.5242,
            8.4074
          ],
          [
            113.146,
            9.2444
          ],
          [
            113.7708,
            10.0803
          ],
          [
            114.3988,
            10.915
          ],
          [
            115.0303,
            11.7484
          ],
          [
            115.6657,
            12.5804
          ],
          [
            116.3051,
            13.411
          ],
          [
            116.9491,
            14.2399
          ],
          [
            117.5977,
            15.067
          ],
          [
            118.2514,
            15.8923
          ],
          [
            118.9105,
            16.7157
          ],
          [
            119.5753,
            17.5369
          ],
          [
            120.2462,
            18.3559
          ],
          [
            120.9234,
            19.1725
          ],
          [
            121.6074,
            19.9866
          ],
          [
            122.2984,
            20.7981
          ],
          [
            122.997,
            21.6067
          ],
          [
            123.7033,
            22.4124
          ],
          [
            124.4179,
            23.215
          ],
          [
            125.1411,
            24.0144
          ],
          [
            125.8733,
            24.8103
          ],
          [
            126.615,
            25.6026
          ],
          [
            127.3666,
            26.3911
          ],
          [
            128.1284,
            27.1756
          ],
          [
            128.901,
            27.9559
          ],
          [
            129.6849,
            28.7319
          ],
          [
            130.4804,
            29.5033
          ],
          [
            131.2881,
            30.2699
          ],
          [
            132.1085,
            31.0314
          ],
          [
            132.942,
            31.7877
          ],
          [
            133.7893,
            32.5384
          ],
          [
            134.6508,
            33.2834
          ],
          [
            135.527,
            34.0223
          ],
          [
            136.4186,
            34.7549
          ],
          [
            137.3261,
            35.4809
          ],
          [
            138.25,
            36.2
          ]
        ]
      },
      "properties": {
        "partner": "Japan",
        "exports_usd_bn": 18.79,
        "imports_usd_bn": 15.56,
        "balance_usd_bn": 3.24,
        "trade_type": "Export-heavy",
        "stroke_width": 3.69,
        "dest_lat": 36.2,
        "dest_lon": 138.25
      }
    },
    {
      "type": "Feature",
      "geometry": {
        "type": "LineString",
        "coordinates": [
          [
            109.45,
            4.21
          ],
          [
            109.2445,
            4.5036
          ],
          [
            109.0389,
            4.7972
          ],
          [
            108.8331,
            5.0907
          ],
          [
            108.6271,
            5.3841
          ],
          [
            108.4209,
            5.6774
          ],
          [
            108.2145,
            5.9707
          ],
          [
            108.0079,
            6.2639
          ],
          [
            107.8011,
            6.5571
          ],
          [
            107.594,
            6.8501
          ],
          [
            107.3866,
            7.1431
          ],
          [
            107.179,
            7.4359
          ],
          [
            106.9711,
            7.7287
          ],
          [
            106.7629,
            8.0214
          ],
          [
            106.5544,
            8.3139
          ],
          [
            106.3456,
            8.6064
          ],
          [
            106.1365,
            8.8987
          ],
          [
            105.9271,
            9.1909
          ],
          [
            105.7173,
            9.483
          ],
          [
            105.5071,
            9.775
          ],
          [
            105.2966,
            10.0669
          ],
          [
            105.0857,
            10.3586
          ],
          [
            104.8744,
            10.6501
          ],
          [
            104.6627,
            10.9416
          ],
          [
            104.4506,
            11.2329
          ],
          [
            104.238,
            11.524
          ],
          [
            104.0251,
            11.815
          ],
          [
            103.8116,
            12.1058
          ],
          [
            103.5977,
            12.3965
          ],
          [
            103.3833,
            12.687
          ],
          [
            103.1684,
            12.9773
          ],
          [
            102.9531,
            13.2674
          ],
          [
            102.7372,
            13.5574
          ],
          [
            102.5208,
            13.8472
          ],
          [
            102.3038,
            14.1367
          ],
          [
            102.0863,
            14.4261
          ],
          [
            101.8682,
            14.7153
          ],
          [
            101.6496,
            15.0043
          ],
          [
            101.4303,
            15.2931
          ],
          [
            101.2105,
            15.5817
          ],
          [
            100.99,
            15.87
          ]
        ]
      },
      "properties": {
        "partner": "Thailand",
        "exports_usd_bn": 12.87,
        "imports_usd_bn": 11.94,
        "balance_usd_bn": 0.93,
        "trade_type": "Export-heavy",
        "stroke_width": 2.62,
        "dest_lat": 15.87,
        "dest_lon": 100.99
      }
    },
    {
      "type": "Feature",
      "geometry": {
        "type": "LineString",
        "coordinates": [
          [
            109.45,
            4.21
          ],
          [
            109.8412,
            5.0188
          ],
          [
            110.2333,
            5.8275
          ],
          [
            110.6266,
            6.6358
          ],
          [
            111.0212,
            7.4438
          ],
          [
            111.4172,
            8.2515
          ],
          [
            111.8148,
            9.0588
          ],
          [
            112.2143,
            9.8656
          ],
          [
            112.6157,
            10.672
          ],
          [
            113.0192,
            11.4779
          ],
          [
            113.4251,
            12.2832
          ],
          [
            113.8334,
            13.0879
          ],
          [
            114.2444,
            13.892
          ],
          [
            114.6583,
            14.6954
          ],
          [
            115.0752,
            15.498
          ],
          [
            115.4954,
            16.2998
          ],
          [
            115.919,
            17.1009
          ],
          [
            116.3463,
            17.901
          ],
          [
            116.7775,
            18.7002
          ],
          [
            117.2127,
            19.4984
          ],
          [
            117.6523,
            20.2955
          ],
          [
            118.0964,
            21.0915
          ],
          [
            118.5453,
            21.8864
          ],
          [
            118.9992,
            22.68
          ],
          [
            119.4584,
            23.4723
          ],
          [
            119.9231,
            24.2633
          ],
          [
            120.3936,
            25.0529
          ],
          [
            120.8703,
            25.8409
          ],
          [
            121.3533,
            26.6274
          ],
          [
            121.843,
            27.4122
          ],
          [
            122.3398,
            28.1953
          ],
          [
            122.8438,
            28.9765
          ],
          [
            123.3555,
            29.7559
          ],
          [
            123.8752,
            30.5332
          ],
          [
            124.4033,
            31.3085
          ],
          [
            124.9402,
            32.0815
          ],
          [
            125.4862,
            32.8523
          ],
          [
            126.0417,
            33.6206
          ],
          [
            126.6072,
            34.3864
          ],
          [
            127.1832,
            35.1496
          ],
          [
            127.77,
            35.91
          ]
        ]
      },
      "properties": {
        "partner": "Korea, Rep.",
        "exports_usd_bn": 12.25,
        "imports_usd_bn": 12.1,
        "balance_usd_bn": 0.16,
        "trade_type": "Export-heavy",
        "stroke_width": 2.51,
        "dest_lat": 35.91,
        "dest_lon": 127.77
      }
    },
    {
      "type": "Feature",
      "geometry": {
        "type": "LineString",
        "coordinates": [
          [
            109.45,
            4.21
          ],
          [
            109.4214,
            4.4563
          ],
          [
            109.3928,
            4.7026
          ],
          [
            109.3641,
            4.9489
          ],
          [
            109.3355,
            5.1951
          ],
          [
            109.3068,
            5.4414
          ],
          [
            109.2781,
            5.6877
          ],
          [
            109.2494,
            5.934
          ],
          [
            109.2206,
            6.1803
          ],
          [
            109.1918,
            6.4265
          ],
          [
            109.163,
            6.6728
          ],
          [
            109.1342,
            6.9191
          ],
          [
            109.1053,
            7.1654
          ],
          [
            109.0764,
            7.4116
          ],
          [
            109.0475,
            7.6579
          ],
          [
            109.0185,
            7.9042
          ],
          [
            108.9895,
            8.1504
          ],
          [
            108.9604,
            8.3967
          ],
          [
            108.9314,
            8.643
          ],
          [
            108.9023,
            8.8892
          ],
          [
            108.8731,
            9.1355
          ],
          [
            108.8439,
            9.3817
          ],
          [
            108.8147,
            9.628
          ],
          [
            108.7854,
            9.8742
          ],
          [
            108.7561,
            10.1205
          ],
          [
            108.7267,
            10.3667
          ],
          [
            108.6973,
            10.613
          ],
          [
            108.6678,
            10.8592
          ],
          [
            108.6383,
            11.1054
          ],
          [
            108.6088,
            11.3517
          ],
          [
            108.5792,
            11.5979
          ],
          [
            108.5495,
            11.8441
          ],
          [
            108.5198,
            12.0903
          ],
          [
            108.49,
            12.3366
          ],
          [
            108.4602,
            12.5828
          ],
          [
            108.4303,
            12.829
          ],
          [
            108.4004,
            13.0752
          ],
          [
            108.3704,
            13.3214
          ],
          [
            108.3403,
            13.5676
          ],
          [
            108.3102,
            13.8138
          ],
          [
            108.28,
            14.06
          ]
        ]
      },
      "properties": {
        "partner": "Vietnam",
        "exports_usd_bn": 11.4,
        "imports_usd_bn": 6.01,
        "balance_usd_bn": 5.39,
        "trade_type": "Export-heavy",
        "stroke_width": 2.35,
        "dest_lat": 14.06,
        "dest_lon": 108.28
      }
    },
    {
      "type": "Feature",
      "geometry": {
        "type": "LineString",
        "coordinates": [
          [
            109.45,
            4.21
          ],
          [
            109.5622,
            4.0852
          ],
          [
            109.6743,
            3.9604
          ],
          [
            109.7864,
            3.8355
          ],
          [
            109.8985,
            3.7107
          ],
          [
            110.0105,
            3.5858
          ],
          [
            110.1225,
            3.4609
          ],
          [
            110.2345,
            3.336
          ],
          [
            110.3464,
            3.2111
          ],
          [
            110.4583,
            3.0862
          ],
          [
            110.5702,
            2.9612
          ],
          [
            110.6821,
            2.8363
          ],
          [
            110.7939,
            2.7113
          ],
          [
            110.9057,
            2.5863
          ],
          [
            111.0175,
            2.4614
          ],
          [
            111.1293,
            2.3364
          ],
          [
            111.2411,
            2.2114
          ],
          [
            111.3528,
            2.0864
          ],
          [
            111.4645,
            1.9614
          ],
          [
            111.5762,
            1.8363
          ],
          [
            111.6879,
            1.7113
          ],
          [
            111.7996,
            1.5863
          ],
          [
            111.9112,
            1.4612
          ],
          [
            112.0229,
            1.3362
          ],
          [
            112.1345,
            1.2111
          ],
          [
            112.2461,
            1.0861
          ],
          [
            112.3578,
            0.961
          ],
          [
            112.4694,
            0.8359
          ],
          [
            112.581,
            0.7109
          ],
          [
            112.6926,
            0.5858
          ],
          [
            112.8042,
            0.4607
          ],
          [
            112.9157,
            0.3357
          ],
          [
            113.0273,
            0.2106
          ],
          [
            113.1389,
            0.0855
          ],
          [
            113.2505,
            -0.0396
          ],
          [
            113.3621,
            -0.1646
          ],
          [
            113.4736,
            -0.2897
          ],
          [
            113.5852,
            -0.4148
          ],
          [
            113.6968,
            -0.5399
          ],
          [
            113.8084,
            -0.6649
          ],
          [
            113.92,
            -0.79
          ]
        ]
      },
      "properties": {
        "partner": "Indonesia",
        "exports_usd_bn": 11.16,
        "imports_usd_bn": 13.22,
        "balance_usd_bn": -2.06,
        "trade_type": "Import-heavy",
        "stroke_width": 2.31,
        "dest_lat": -0.79,
        "dest_lon": 113.92
      }
    },
    {
      "type": "Feature",
      "geometry": {
        "type": "LineString",
        "coordinates": [
          [
            109.45,
            4.21
          ],
          [
            110.0254,
            3.4602
          ],
          [
            110.5999,
            2.7101
          ],
          [
            111.1737,
            1.9596
          ],
          [
            111.747,
            1.209
          ],
          [
            112.3199,
            0.4583
          ],
          [
            112.8928,
            -0.2925
          ],
          [
            113.4657,
            -1.0432
          ],
          [
            114.0389,
            -1.7939
          ],
          [
            114.6125,
            -2.5444
          ],
          [
            115.1868,
            -3.2946
          ],
          [
            115.762,
            -4.0445
          ],
          [
            116.3383,
            -4.7939
          ],
          [
            116.9158,
            -5.5429
          ],
          [
            117.4948,
            -6.2913
          ],
          [
            118.0755,
            -7.0391
          ],
          [
            118.658,
            -7.7862
          ],
          [
            119.2426,
            -8.5325
          ],
          [
            119.8295,
            -9.2779
          ],
          [
            120.4189,
            -10.0223
          ],
          [
            121.011,
            -10.7657
          ],
          [
            121.606,
            -11.508
          ],
          [
            122.2042,
            -12.249
          ],
          [
            122.8058,
            -12.9888
          ],
          [
            123.4109,
            -13.7271
          ],
          [
            124.0199,
            -14.464
          ],
          [
            124.6329,
            -15.1993
          ],
          [
            125.2502,
            -15.9329
          ],
          [
            125.872,
            -16.6648
          ],
          [
            126.4985,
            -17.3948
          ],
          [
            127.1301,
            -18.1228
          ],
          [
            127.767,
            -18.8487
          ],
          [
            128.4094,
            -19.5725
          ],
          [
            129.0576,
            -20.294
          ],
          [
            129.7118,
            -21.013
          ],
          [
            130.3724,
            -21.7295
          ],
          [
            131.0395,
            -22.4434
          ],
          [
            131.7136,
            -23.1546
          ],
          [
            132.3948,
            -23.8628
          ],
          [
            133.0835,
            -24.568
          ],
          [
            133.78,
            -25.27
          ]
        ]
      },
      "properties": {
        "partner": "Australia",
        "exports_usd_bn": 10.94,
        "imports_usd_bn": 7.62,
        "balance_usd_bn": 3.33,
        "trade_type": "Export-heavy",
        "stroke_width": 2.27,
        "dest_lat": -25.27,
        "dest_lon": 133.78
      }
    },
    {
      "type": "Feature",
      "geometry": {
        "type": "LineString",
        "coordinates": [
          [
            109.45,
            4.21
          ],
          [
            108.726,
            4.6526
          ],
          [
            108.001,
            5.0944
          ],
          [
            107.2751,
            5.5354
          ],
          [
            106.5481,
            5.9755
          ],
          [
            105.8199,
            6.4147
          ],
          [
            105.0904,
            6.8528
          ],
          [
            104.3596,
            7.2898
          ],
          [
            103.6274,
            7.7257
          ],
          [
            102.8937,
            8.1603
          ],
          [
            102.1584,
            8.5936
          ],
          [
            101.4214,
            9.0255
          ],
          [
            100.6826,
            9.4559
          ],
          [
            99.942,
            9.8847
          ],
          [
            99.1995,
            10.312
          ],
          [
            98.4549,
            10.7375
          ],
          [
            97.7083,
            11.1613
          ],
          [
            96.9595,
            11.5832
          ],
          [
            96.2084,
            12.0032
          ],
          [
            95.455,
            12.4212
          ],
          [
            94.6991,
            12.8371
          ],
          [
            93.9408,
            13.2508
          ],
          [
            93.1799,
            13.6623
          ],
          [
            92.4163,
            14.0714
          ],
          [
            91.65,
            14.4782
          ],
          [
            90.8809,
            14.8824
          ],
          [
            90.1089,
            15.2841
          ],
          [
            89.3339,
            15.6831
          ],
          [
            88.556,
            16.0794
          ],
          [
            87.7749,
            16.4728
          ],
          [
            86.9907,
            16.8634
          ],
          [
            86.2032,
            17.251
          ],
          [
            85.4125,
            17.6354
          ],
          [
            84.6183,
            18.0168
          ],
          [
            83.8208,
            18.3948
          ],
          [
            83.0197,
            18.7695
          ],
          [
            82.2151,
            19.1408
          ],
          [
            81.4069,
            19.5086
          ],
          [
            80.595,
            19.8728
          ],
          [
            79.7794,
            20.2333
          ],
          [
            78.96,
            20.59
          ]
        ]
      },
      "properties": {
        "partner": "India",
        "exports_usd_bn": 9.98,
        "imports_usd_bn": 6.54,
        "balance_usd_bn": 3.44,
        "trade_type": "Export-heavy",
        "stroke_width": 2.09,
        "dest_lat": 20.59,
        "dest_lon": 78.96
      }
    },
    {
      "type": "Feature",
      "geometry": {
        "type": "LineString",
        "coordinates": [
          [
            109.45,
            4.21
          ],
          [
            108.0185,
            6.1179
          ],
          [
            106.5767,
            8.0219
          ],
          [
            105.1213,
            9.9209
          ],
          [
            103.649,
            11.8136
          ],
          [
            102.1563,
            13.6985
          ],
          [
            100.6395,
            15.5744
          ],
          [
            99.0948,
            17.4397
          ],
          [
            97.5183,
            19.2928
          ],
          [
            95.9058,
            21.1322
          ],
          [
            94.253,
            22.9558
          ],
          [
            92.5552,
            24.7619
          ],
          [
            90.8075,
            26.5483
          ],
          [
            89.0049,
            28.3127
          ],
          [
            87.1419,
            30.0526
          ],
          [
            85.2128,
            31.7653
          ],
          [
            83.2115,
            33.4479
          ],
          [
            81.1319,
            35.0971
          ],
          [
            78.9674,
            36.7093
          ],
          [
            76.7113,
            38.2806
          ],
          [
            74.3569,
            39.8069
          ],
          [
            71.8974,
            41.2834
          ],
          [
            69.3261,
            42.7052
          ],
          [
            66.6369,
            44.0668
          ],
          [
            63.8243,
            45.3625
          ],
          [
            60.8836,
            46.5859
          ],
          [
            57.8116,
            47.7306
          ],
          [
            54.6068,
            48.7897
          ],
          [
            51.2701,
            49.7563
          ],
          [
            47.8049,
            50.6232
          ],
          [
            44.2176,
            51.3837
          ],
          [
            40.5184,
            52.0311
          ],
          [
            36.7207,
            52.5595
          ],
          [
            32.8414,
            52.9637
          ],
          [
            28.9007,
            53.2394
          ],
          [
            24.9211,
            53.3838
          ],
          [
            20.927,
            53.3952
          ],
          [
            16.9432,
            53.2735
          ],
          [
            12.9942,
            53.02
          ],
          [
            9.103,
            52.6375
          ],
          [
            5.29,
            52.13
          ]
        ]
      },
      "properties": {
        "partner": "Netherlands",
        "exports_usd_bn": 7.86,
        "imports_usd_bn": 1.12,
        "balance_usd_bn": 6.74,
        "trade_type": "Export-heavy",
        "stroke_width": 1.71,
        "dest_lat": 52.13,
        "dest_lon": 5.29
      }
    },
    {
      "type": "Feature",
      "geometry": {
        "type": "LineString",
        "coordinates": [
          [
            109.45,
            4.21
          ],
          [
            108.0117,
            6.0199
          ],
          [
            106.5637,
            7.826
          ],
          [
            105.1032,
            9.6271
          ],
          [
            103.627,
            11.422
          ],
          [
            102.1321,
            13.2094
          ],
          [
            100.6151,
            14.9881
          ],
          [
            99.0728,
            16.7565
          ],
          [
            97.5017,
            18.5132
          ],
          [
            95.8981,
            20.2567
          ],
          [
            94.2582,
            21.9854
          ],
          [
            92.578,
            23.6973
          ],
          [
            90.8535,
            25.3906
          ],
          [
            89.0801,
            27.0632
          ],
          [
            87.2535,
            28.7129
          ],
          [
            85.3687,
            30.3373
          ],
          [
            83.4209,
            31.9338
          ],
          [
            81.4049,
            33.4995
          ],
          [
            79.3155,
            35.0313
          ],
          [
            77.1472,
            36.526
          ],
          [
            74.8947,
            37.9799
          ],
          [
            72.5526,
            39.3892
          ],
          [
            70.1156,
            40.7495
          ],
          [
            67.5789,
            42.0566
          ],
          [
            64.938,
            43.3054
          ],
          [
            62.1892,
            44.491
          ],
          [
            59.3297,
            45.6079
          ],
          [
            56.3581,
            46.6507
          ],
          [
            53.2741,
            47.6137
          ],
          [
            50.0798,
            48.4909
          ],
          [
            46.779,
            49.2768
          ],
          [
            43.378,
            49.9657
          ],
          [
            39.8858,
            50.5525
          ],
          [
            36.3137,
            51.0323
          ],
          [
            32.6756,
            51.4012
          ],
          [
            28.9876,
            51.6557
          ],
          [
            25.2676,
            51.7937
          ],
          [
            21.5345,
            51.8137
          ],
          [
            17.8078,
            51.7157
          ],
          [
            14.1069,
            51.5004
          ],
          [
            10.45,
            51.17
          ]
        ]
      },
      "properties": {
        "partner": "Germany",
        "exports_usd_bn": 6.7,
        "imports_usd_bn": 7.21,
        "balance_usd_bn": -0.51,
        "trade_type": "Import-heavy",
        "stroke_width": 1.5,
        "dest_lat": 51.17,
        "dest_lon": 10.45
      }
    }
  ]
}