{
  "type": "FeatureCollection",
  "features": [
    {
      "type": "Feature",
      "geometry": {
        "type": "LineString",
        "coordinates": [
          [
            109.45,
            4.21
          ],
          [
            109.3559,
            4.1626
          ],
          [
            109.2618,
            4.1152
          ],
          [
            109.1678,
            4.0677
          ],
          [
            109.0737,
            4.0203
          ],
          [
            108.9796,
            3.9728
          ],
          [
            108.8856,
            3.9254
          ],
          [
            108.7916,
            3.8779
          ],
          [
            108.6976,
            3.8304
          ],
          [
            108.6036,
            3.7829
          ],
          [
            108.5096,
            3.7354
          ],
          [
            108.4156,
            3.6879
          ],
          [
            108.3216,
            3.6404
          ],
          [
            108.2276,
            3.5928
          ],
          [
            108.1337,
            3.5453
          ],
          [
            108.0397,
            3.4977
          ],
          [
            107.9458,
            3.4502
          ],
          [
            107.8519,
            3.4026
          ],
          [
            107.7579,
            3.355
          ],
          [
            107.664,
            3.3074
          ],
          [
            107.5701,
            3.2598
          ],
          [
            107.4762,
            3.2122
          ],
          [
            107.3824,
            3.1646
          ],
          [
            107.2885,
            3.117
          ],
          [
            107.1946,
            3.0693
          ],
          [
            107.1008,
            3.0217
          ],
          [
            107.0069,
            2.974
          ],
          [
            106.9131,
            2.9264
          ],
          [
            106.8192,
            2.8787
          ],
          [
            106.7254,
            2.831
          ],
          [
            106.6316,
            2.7834
          ],
          [
            106.5378,
            2.7357
          ],
          [
            106.444,
            2.688
          ],
          [
            106.3502,
            2.6403
          ],
          [
            106.2564,
            2.5926
          ],
          [
            106.1626,
            2.5448
          ],
          [
            106.0688,
            2.4971
          ],
          [
            105.9751,
            2.4494
          ],
          [
            105.8813,
            2.4016
          ],
          [
            105.7876,
            2.3539
          ],
          [
            105.6938,
            2.3061
          ],
          [
            105.6001,
            2.2584
          ],
          [
            105.5063,
            2.2106
          ],
          [
            105.4126,
            2.1629
          ],
          [
            105.3189,
            2.1151
          ],
          [
            105.2252,
            2.0673
          ],
          [
            105.1314,
            2.0195
          ],
          [
            105.0377,
            1.9717
          ],
          [
            104.944,
            1.9239
          ],
          [
            104.8503,
            1.8761
          ],
          [
            104.7567,
            1.8283
          ],
          [
            104.663,
            1.7805
          ],
          [
            104.5693,
            1.7327
          ],
          [
            104.4756,
            1.6849
          ],
          [
            104.3819,
            1.637
          ],
          [
            104.2883,
            1.5892
          ],
          [
            104.1946,
            1.5414
          ],
          [
            104.101,
            1.4935
          ],
          [
            104.0073,
            1.4457
          ],
          [
            103.9136,
            1.3978
          ],
          [
            103.82,
            1.35
          ]
        ]
      },
      "properties": {
        "partner": "Singapore",
        "exports_usd_bn": 48.09,
        "imports_usd_bn": 31.53,
        "balance_usd_bn": 16.56,
        "trade_type": "Export-heavy",
        "stroke_width": 12.0,
        "dest_lat": 1.35,
        "dest_lon": 103.82
      }
    },
    {
      "type": "Feature",
      "geometry": {
        "type": "LineString",
        "coordinates": [
          [
            109.45,
            4.21
          ],
          [
            109.375,
            4.7384
          ],
          [
            109.2998,
            5.2668
          ],
          [
            109.2245,
            5.7952
          ],
          [
            109.1491,
            6.3235
          ],
          [
            109.0735,
            6.8519
          ],
          [
            108.9978,
            7.3802
          ],
          [
            108.9219,
            7.9085
          ],
          [
            108.8457,
            8.4369
          ],
          [
            108.7694,
            8.9652
          ],
          [
            108.6929,
            9.4934
          ],
          [
            108.6161,
            10.0217
          ],
          [
            108.539,
            10.55
          ],
          [
            108.4617,
            11.0782
          ],
          [
            108.3842,
            11.6064
          ],
          [
            108.3063,
            12.1346
          ],
          [
            108.2281,
            12.6628
          ],
          [
            108.1496,
            13.1909
          ],
          [
            108.0707,
            13.719
          ],
          [
            107.9915,
            14.2471
          ],
          [
            107.912,
            14.7752
          ],
          [
            107.832,
            15.3033
          ],
          [
            107.7516,
            15.8313
          ],
          [
            107.6708,
            16.3593
          ],
          [
            107.5896,
            16.8872
          ],
          [
            107.5079,
            17.4151
          ],
          [
            107.4258,
            17.943
          ],
          [
            107.3431,
            18.4709
          ],
          [
            107.26,
            18.9987
          ],
          [
            107.1763,
            19.5265
          ],
          [
            107.092,
            20.0542
          ],
          [
            107.0072,
            20.5819
          ],
          [
            106.9218,
            21.1096
          ],
          [
            106.8358,
            21.6372
          ],
          [
            106.7492,
            22.1648
          ],
          [
            106.6619,
            22.6923
          ],
          [
            106.5739,
            23.2198
          ],
          [
            106.4853,
            23.7472
          ],
          [
            106.3959,
            24.2746
          ],
          [
            106.3058,
            24.8019
          ],
          [
            106.2149,
            25.3292
          ],
          [
            106.1232,
            25.8564
          ],
          [
            106.0307,
            26.3836
          ],
          [
            105.9373,
            26.9107
          ],
          [
            105.8431,
            27.4377
          ],
          [
            105.7479,
            27.9647
          ],
          [
            105.6519,
            28.4916
          ],
          [
            105.5548,
            29.0184
          ],
          [
            105.4568,
            29.5452
          ],
          [
            105.3577,
            30.0719
          ],
          [
            105.2576,
            30.5985
          ],
          [
            105.1564,
            31.1251
          ],
          [
            105.0541,
            31.6515
          ],
          [
            104.9505,
            32.1779
          ],
          [
            104.8458,
            32.7042
          ],
          [
            104.7399,
            33.2304
          ],
          [
            104.6326,
            33.7565
          ],
          [
            104.5241,
            34.2825
          ],
          [
            104.4141,
            34.8085
          ],
          [
            104.3028,
            35.3343
          ],
          [
            104.19,
            35.86
          ]
        ]
      },
      "properties": {
        "partner": "China",
        "exports_usd_bn": 42.15,
        "imports_usd_bn": 56.71,
        "balance_usd_bn": -14.56,
        "trade_type": "Import-heavy",
        "stroke_width": 10.4,
        "dest_lat": 35.86,
        "dest_lon": 104.19
      }
    },
    {
      "type": "Feature",
      "geometry": {
        "type": "LineString",
        "coordinates": [
          [
            109.45,
            4.21
          ],
          [
            110.4719,
            6.1702
          ],
          [
            111.5014,
            8.1284
          ],
          [
            112.5409,
            10.084
          ],
          [
            113.5932,
            12.0363
          ],
          [
            114.6608,
            13.9846
          ],
          [
            115.7467,
            15.9281
          ],
          [
            116.8538,
            17.8661
          ],
          [
            117.9852,
            19.7978
          ],
          [
            119.1444,
            21.7221
          ],
          [
            120.335,
            23.6382
          ],
          [
            121.5609,
            25.5449
          ],
          [
            122.8263,
            27.4411
          ],
          [
            124.1358,
            29.3254
          ],
          [
            125.4945,
            31.1965
          ],
          [
            126.9078,
            33.0527
          ],
          [
            128.3817,
            34.8923
          ],
          [
            129.9227,
            36.7133
          ],
          [
            131.5382,
            38.5135
          ],
          [
            133.236,
            40.2904
          ],
          [
            135.0248,
            42.0411
          ],
          [
            136.9141,
            43.7625
          ],
          [
            138.9143,
            45.4509
          ],
          [
            141.0365,
            47.1023
          ],
          [
            143.2928,
            48.7119
          ],
          [
            145.696,
            50.2747
          ],
          [
            148.2595,
            51.7846
          ],
          [
            150.9969,
            53.2349
          ],
          [
            153.9216,
            54.6182
          ],
          [
            157.0463,
            55.9261
          ],
          [
            160.382,
            57.1495
          ],
          [
            163.9366,
            58.2786
          ],
          [
            167.7139,
            59.3027
          ],
          [
            171.712,
            60.2109
          ],
          [
            175.9212,
            60.9924
          ],
          [
            -179.6765,
            61.6364
          ],
          [
            -175.1089,
            62.1334
          ],
          [
            -170.4131,
            62.4755
          ],
          [
            -165.6344,
            62.6567
          ],
          [
            -160.8237,
            62.6739
          ],
          [
            -156.034,
            62.5266
          ],
          [
            -151.317,
            62.2177
          ],
          [
            -146.7194,
            61.7523
          ],
          [
            -142.2801,
            61.1381
          ],
          [
            -138.0288,
            60.3845
          ],
          [
            -133.9857,
            59.5017
          ],
          [
            -130.162,
            58.5008
          ],
          [
            -126.5612,
            57.3928
          ],
          [
            -123.1805,
            56.1881
          ],
          [
            -120.0127,
            54.897
          ],
          [
            -117.0473,
            53.5287
          ],
          [
            -114.272,
            52.0917
          ],
          [
            -111.6734,
            50.5937
          ],
          [
            -109.238,
            49.0414
          ],
          [
            -106.9521,
            47.4411
          ],
          [
            -104.803,
            45.798
          ],
          [
            -102.7784,
            44.1169
          ],
          [
            -100.8669,
            42.4021
          ],
          [
            -99.0579,
            40.6572
          ],
          [
            -97.3419,
            38.8855
          ],
          [
            -95.71,
            37.09
          ]
        ]
      },
      "properties": {
        "partner": "United States",
        "exports_usd_bn": 35.46,
        "imports_usd_bn": 19.53,
        "balance_usd_bn": 15.93,
        "trade_type": "Export-heavy",
        "stroke_width": 8.6,
        "dest_lat": 37.09,
        "dest_lon": -95.71
      }
    },
    {
      "type": "Feature",
      "geometry": {
        "type": "LineString",
        "coordinates": [
          [
            109.45,
            4.21
          ],
          [
            109.5232,
            4.5137
          ],
          [
            109.5966,
            4.8174
          ],
          [
            109.6699,
            5.1211
          ],
          [
            109.7434,
            5.4247
          ],
          [
            109.8169,
            5.7284
          ],
          [
            109.8905,
            6.0321
          ],
          [
            109.9642,
            6.3357
          ],
          [
            110.0379,
            6.6393
          ],
          [
            110.1118,
            6.943
          ],
          [
            110.1858,
            7.2466
          ],
          [
            110.2598,
            7.5502
          ],
          [
            110.334,
            7.8538
          ],
          [
            110.4082,
            8.1573
          ],
          [
            110.4826,
            8.4609
          ],
          [
            110.5571,
            8.7645
          ],
          [
            110.6317,
            9.068
          ],
          [
            110.7065,
            9.3715
          ],
          [
            110.7814,
            9.675
          ],
          [
            110.8564,
            9.9785
          ],
          [
            110.9315,
            10.282
          ],
          [
            111.0068,
            10.5854
          ],
          [
            111.0823,
            10.8888
          ],
          [
            111.1578,
            11.1923
          ],
          [
            111.2336,
            11.4957
          ],
          [
            111.3095,
            11.799
          ],
          [
            111.3856,
            12.1024
          ],
          [
            111.4619,
            12.4057
          ],
          [
            111.5383,
            12.709
          ],
          [
            111.6149,
            13.0123
          ],
          [
            111.6917,
            13.3156
          ],
          [
            111.7687,
            13.6188
          ],
          [
            111.8459,
            13.9221
          ],
          [
            111.9233,
            14.2253
          ],
          [
            112.001,
            14.5284
          ],
          [
            112.0788,
            14.8316
          ],
          [
            112.1568,
            15.1347
          ],
          [
            112.2351,
            15.4378
          ],
          [
            112.3136,
            15.7409
          ],
          [
            112.3923,
            16.0439
          ],
          [
            112.4713,
            16.3469
          ],
          [
            112.5505,
            16.6499
          ],
          [
            112.63,
            16.9529
          ],
          [
            112.7097,
            17.2558
          ],
          [
            112.7897,
            17.5587
          ],
          [
            112.8699,
            17.8615
          ],
          [
            112.9504,
            18.1643
          ],
          [
            113.0313,
            18.4671
          ],
          [
            113.1123,
            18.7699
          ],
          [
            113.1937,
            19.0726
          ],
          [
            113.2754,
            19.3753
          ],
          [
            113.3574,
            19.6779
          ],
          [
            113.4397,
            19.9806
          ],
          [
            113.5223,
            20.2831
          ],
          [
            113.6052,
            20.5857
          ],
          [
            113.6885,
            20.8882
          ],
          [
            113.7721,
            21.1906
          ],
          [
            113.856,
            21.493
          ],
          [
            113.9403,
            21.7954
          ],
          [
            114.025,
            22.0977
          ],
          [
            114.11,
            22.4
          ]
        ]
      },
      "properties": {
        "partner": "Hong Kong, China",
        "exports_usd_bn": 19.7,
        "imports_usd_bn": 3.34,
        "balance_usd_bn": 16.36,
        "trade_type": "Export-heavy",
        "stroke_width": 4.36,
        "dest_lat": 22.4,
        "dest_lon": 114.11
      }
    },
    {
      "type": "Feature",
      "geometry": {
        "type": "LineString",
        "coordinates": [
          [
            109.45,
            4.21
          ],
          [
            109.8573,
            4.7706
          ],
          [
            110.2652,
            5.331
          ],
          [
            110.6738,
            5.8911
          ],
          [
            111.0833,
            6.4509
          ],
          [
            111.4937,
            7.0104
          ],
          [
            111.9051,
            7.5695
          ],
          [
            112.3176,
            8.1282
          ],
          [
            112.7312,
            8.6865
          ],
          [
            113.146,
            9.2444
          ],
          [
            113.5622,
            9.8018
          ],
          [
            113.9797,
            10.3587
          ],
          [
            114.3988,
            10.915
          ],
          [
            114.8194,
            11.4708
          ],
          [
            115.2416,
            12.0259
          ],
          [
            115.6657,
            12.5804
          ],
          [
            116.0915,
            13.1343
          ],
          [
            116.5193,
            13.6875
          ],
          [
            116.9491,
            14.2399
          ],
          [
            117.381,
            14.7915
          ],
          [
            117.8151,
            15.3424
          ],
          [
            118.2514,
            15.8923
          ],
          [
            118.6902,
            16.4415
          ],
          [
            119.1315,
            16.9897
          ],
          [
            119.5753,
            17.5369
          ],
          [
            120.0219,
            18.0831
          ],
          [
            120.4712,
            18.6284
          ],
          [
            120.9234,
            19.1725
          ],
          [
            121.3786,
            19.7155
          ],
          [
            121.8369,
            20.2574
          ],
          [
            122.2984,
            20.7981
          ],
          [
            122.7633,
            21.3375
          ],
          [
            123.2315,
            21.8756
          ],
          [
            123.7033,
            22.4124
          ],
          [
            124.1788,
            22.9478
          ],
          [
            124.658,
            23.4818
          ],
          [
            125.1411,
            24.0144
          ],
          [
            125.6282,
            24.5454
          ],
          [
            126.1195,
            25.0748
          ],
          [
            126.615,
            25.6026
          ],
          [
            127.1149,
            26.1287
          ],
          [
            127.6193,
            26.653
          ],
          [
            128.1284,
            27.1756
          ],
          [
            128.6423,
            27.6963
          ],
          [
            129.161,
            28.2151
          ],
          [
            129.6849,
            28.7319
          ],
          [
            130.2139,
            29.2467
          ],
          [
            130.7483,
            29.7594
          ],
          [
            131.2881,
            30.2699
          ],
          [
            131.8336,
            30.7781
          ],
          [
            132.3848,
            31.2841
          ],
          [
            132.942,
            31.7877
          ],
          [
            133.5053,
            32.2888
          ],
          [
            134.0748,
            32.7874
          ],
          [
            134.6508,
            33.2834
          ],
          [
            135.2333,
            33.7767
          ],
          [
            135.8225,
            34.2672
          ],
          [
            136.4186,
            34.7549
          ],
          [
            137.0218,
            35.2397
          ],
          [
            137.6322,
            35.7214
          ],
          [
            138.25,
            36.2
          ]
        ]
      },
      "properties": {
        "partner": "Japan",
        "exports_usd_bn": 18.79,
        "imports_usd_bn": 15.56,
        "balance_usd_bn": 3.24,
        "trade_type": "Export-heavy",
        "stroke_width": 4.11,
        "dest_lat": 36.2,
        "dest_lon": 138.25
      }
    },
    {
      "type": "Feature",
      "geometry": {
        "type": "LineString",
        "coordinates": [
          [
            109.45,
            4.21
          ],
          [
            109.313,
            4.4057
          ],
          [
            109.176,
            4.6015
          ],
          [
            109.0389,
            4.7972
          ],
          [
            108.9017,
            4.9928
          ],
          [
            108.7645,
            5.1885
          ],
          [
            108.6271,
            5.3841
          ],
          [
            108.4897,
            5.5797
          ],
          [
            108.3522,
            5.7752
          ],
          [
            108.2145,
            5.9707
          ],
          [
            108.0768,
            6.1662
          ],
          [
            107.939,
            6.3617
          ],
          [
            107.8011,
            6.5571
          ],
          [
            107.663,
            6.7524
          ],
          [
            107.5249,
            6.9478
          ],
          [
            107.3866,
            7.1431
          ],
          [
            107.2482,
            7.3383
          ],
          [
            107.1097,
            7.5335
          ],
          [
            106.9711,
            7.7287
          ],
          [
            106.8323,
            7.9238
          ],
          [
            106.6935,
            8.1189
          ],
          [
            106.5544,
            8.3139
          ],
          [
            106.4153,
            8.5089
          ],
          [
            106.276,
            8.7038
          ],
          [
            106.1365,
            8.8987
          ],
          [
            105.9969,
            9.0935
          ],
          [
            105.8572,
            9.2883
          ],
          [
            105.7173,
            9.483
          ],
          [
            105.5772,
            9.6777
          ],
          [
            105.437,
            9.8723
          ],
          [
            105.2966,
            10.0669
          ],
          [
            105.156,
            10.2613
          ],
          [
            105.0153,
            10.4558
          ],
          [
            104.8744,
            10.6501
          ],
          [
            104.7333,
            10.8444
          ],
          [
            104.592,
            11.0387
          ],
          [
            104.4506,
            11.2329
          ],
          [
            104.3089,
            11.427
          ],
          [
            104.1671,
            11.621
          ],
          [
            104.0251,
            11.815
          ],
          [
            103.8828,
            12.0089
          ],
          [
            103.7404,
            12.2027
          ],
          [
            103.5977,
            12.3965
          ],
          [
            103.4548,
            12.5901
          ],
          [
            103.3118,
            12.7838
          ],
          [
            103.1684,
            12.9773
          ],
          [
            103.0249,
            13.1707
          ],
          [
            102.8812,
            13.3641
          ],
          [
            102.7372,
            13.5574
          ],
          [
            102.593,
            13.7506
          ],
          [
            102.4485,
            13.9437
          ],
          [
            102.3038,
            14.1367
          ],
          [
            102.1589,
            14.3297
          ],
          [
            102.0137,
            14.5226
          ],
          [
            101.8682,
            14.7153
          ],
          [
            101.7225,
            14.908
          ],
          [
            101.5766,
            15.1006
          ],
          [
            101.4303,
            15.2931
          ],
          [
            101.2838,
            15.4855
          ],
          [
            101.137,
            15.6778
          ],
          [
            100.99,
            15.87
          ]
        ]
      },
      "properties": {
        "partner": "Thailand",
        "exports_usd_bn": 12.87,
        "imports_usd_bn": 11.94,
        "balance_usd_bn": 0.93,
        "trade_type": "Export-heavy",
        "stroke_width": 2.52,
        "dest_lat": 15.87,
        "dest_lon": 100.99
      }
    },
    {
      "type": "Feature",
      "geometry": {
        "type": "LineString",
        "coordinates": [
          [
            109.45,
            4.21
          ],
          [
            109.7107,
            4.7493
          ],
          [
            109.9718,
            5.2884
          ],
          [
            110.2333,
            5.8275
          ],
          [
            110.4954,
            6.3664
          ],
          [
            110.758,
            6.9052
          ],
          [
            111.0212,
            7.4438
          ],
          [
            111.285,
            7.9823
          ],
          [
            111.5496,
            8.5206
          ],
          [
            111.8148,
            9.0588
          ],
          [
            112.0809,
            9.5967
          ],
          [
            112.3479,
            10.1345
          ],
          [
            112.6157,
            10.672
          ],
          [
            112.8845,
            11.2093
          ],
          [
            113.1542,
            11.7464
          ],
          [
            113.4251,
            12.2832
          ],
          [
            113.697,
            12.8198
          ],
          [
            113.9701,
            13.356
          ],
          [
            114.2444,
            13.892
          ],
          [
            114.52,
            14.4277
          ],
          [
            114.7969,
            14.963
          ],
          [
            115.0752,
            15.498
          ],
          [
            115.355,
            16.0327
          ],
          [
            115.6362,
            16.5669
          ],
          [
            115.919,
            17.1009
          ],
          [
            116.2035,
            17.6344
          ],
          [
            116.4896,
            18.1675
          ],
          [
            116.7775,
            18.7002
          ],
          [
            117.0672,
            19.2324
          ],
          [
            117.3587,
            19.7642
          ],
          [
            117.6523,
            20.2955
          ],
          [
            117.9478,
            20.8263
          ],
          [
            118.2455,
            21.3566
          ],
          [
            118.5453,
            21.8864
          ],
          [
            118.8473,
            22.4156
          ],
          [
            119.1516,
            22.9443
          ],
          [
            119.4584,
            23.4723
          ],
          [
            119.7675,
            23.9998
          ],
          [
            120.0793,
            24.5267
          ],
          [
            120.3936,
            25.0529
          ],
          [
            120.7107,
            25.5784
          ],
          [
            121.0306,
            26.1032
          ],
          [
            121.3533,
            26.6274
          ],
          [
            121.679,
            27.1508
          ],
          [
            122.0078,
            27.6734
          ],
          [
            122.3398,
            28.1953
          ],
          [
            122.675,
            28.7163
          ],
          [
            123.0135,
            29.2365
          ],
          [
            123.3555,
            29.7559
          ],
          [
            123.7011,
            30.2743
          ],
          [
            124.0503,
            30.7919
          ],
          [
            124.4033,
            31.3085
          ],
          [
            124.7602,
            31.8241
          ],
          [
            125.1211,
            32.3387
          ],
          [
            125.4862,
            32.8523
          ],
          [
            125.8554,
            33.3648
          ],
          [
            126.2291,
            33.8762
          ],
          [
            126.6072,
            34.3864
          ],
          [
            126.99,
            34.8955
          ],
          [
            127.3775,
            35.4034
          ],
          [
            127.77,
            35.91
          ]
        ]
      },
      "properties": {
        "partner": "Korea, Rep.",
        "exports_usd_bn": 12.25,
        "imports_usd_bn": 12.1,
        "balance_usd_bn": 0.16,
        "trade_type": "Export-heavy",
        "stroke_width": 2.35,
        "dest_lat": 35.91,
        "dest_lon": 127.77
      }
    },
    {
      "type": "Feature",
      "geometry": {
        "type": "LineString",
        "coordinates": [
          [
            109.45,
            4.21
          ],
          [
            109.4309,
            4.3742
          ],
          [
            109.4119,
            4.5384
          ],
          [
            109.3928,
            4.7026
          ],
          [
            109.3737,
            4.8668
          ],
          [
            109.3546,
            5.031
          ],
          [
            109.3355,
            5.1951
          ],
          [
            109.3164,
            5.3593
          ],
          [
            109.2972,
            5.5235
          ],
          [
            109.2781,
            5.6877
          ],
          [
            109.2589,
            5.8519
          ],
          [
            109.2398,
            6.0161
          ],
          [
            109.2206,
            6.1803
          ],
          [
            109.2014,
            6.3445
          ],
          [
            109.1822,
            6.5086
          ],
          [
            109.163,
            6.6728
          ],
          [
            109.1438,
            6.837
          ],
          [
            109.1245,
            7.0012
          ],
          [
            109.1053,
            7.1654
          ],
          [
            109.086,
            7.3295
          ],
          [
            109.0667,
            7.4937
          ],
          [
            109.0475,
            7.6579
          ],
          [
            109.0281,
            7.8221
          ],
          [
            109.0088,
            7.9863
          ],
          [
            108.9895,
            8.1504
          ],
          [
            108.9701,
            8.3146
          ],
          [
            108.9508,
            8.4788
          ],
          [
            108.9314,
            8.643
          ],
          [
            108.912,
            8.8071
          ],
          [
            108.8925,
            8.9713
          ],
          [
            108.8731,
            9.1355
          ],
          [
            108.8536,
            9.2996
          ],
          [
            108.8342,
            9.4638
          ],
          [
            108.8147,
            9.628
          ],
          [
            108.7952,
            9.7921
          ],
          [
            108.7756,
            9.9563
          ],
          [
            108.7561,
            10.1205
          ],
          [
            108.7365,
            10.2846
          ],
          [
            108.7169,
            10.4488
          ],
          [
            108.6973,
            10.613
          ],
          [
            108.6777,
            10.7771
          ],
          [
            108.658,
            10.9413
          ],
          [
            108.6383,
            11.1054
          ],
          [
            108.6186,
            11.2696
          ],
          [
            108.5989,
            11.4337
          ],
          [
            108.5792,
            11.5979
          ],
          [
            108.5594,
            11.762
          ],
          [
            108.5396,
            11.9262
          ],
          [
            108.5198,
            12.0903
          ],
          [
            108.5,
            12.2545
          ],
          [
            108.4801,
            12.4186
          ],
          [
            108.4602,
            12.5828
          ],
          [
            108.4403,
            12.7469
          ],
          [
            108.4203,
            12.9111
          ],
          [
            108.4004,
            13.0752
          ],
          [
            108.3804,
            13.2393
          ],
          [
            108.3604,
            13.4035
          ],
          [
            108.3403,
            13.5676
          ],
          [
            108.3202,
            13.7317
          ],
          [
            108.3001,
            13.8959
          ],
          [
            108.28,
            14.06
          ]
        ]
      },
      "properties": {
        "partner": "Vietnam",
        "exports_usd_bn": 11.4,
        "imports_usd_bn": 6.01,
        "balance_usd_bn": 5.39,
        "trade_type": "Export-heavy",
        "stroke_width": 2.12,
        "dest_lat": 14.06,
        "dest_lon": 108.28
      }
    },
    {
      "type": "Feature",
      "geometry": {
        "type": "LineString",
        "coordinates": [
          [
            109.45,
            4.21
          ],
          [
            109.5248,
            4.1268
          ],
          [
            109.5995,
            4.0436
          ],
          [
            109.6743,
            3.9604
          ],
          [
            109.749,
            3.8771
          ],
          [
            109.8238,
            3.7939
          ],
          [
            109.8985,
            3.7107
          ],
          [
            109.9732,
            3.6274
          ],
          [
            110.0478,
            3.5442
          ],
          [
            110.1225,
            3.4609
          ],
          [
            110.1971,
            3.3776
          ],
          [
            110.2718,
            3.2944
          ],
          [
            110.3464,
            3.2111
          ],
          [
            110.421,
            3.1278
          ],
          [
            110.4956,
            3.0445
          ],
          [
            110.5702,
            2.9612
          ],
          [
            110.6448,
            2.8779
          ],
          [
            110.7194,
            2.7946
          ],
          [
            110.7939,
            2.7113
          ],
          [
            110.8685,
            2.628
          ],
          [
            110.943,
            2.5447
          ],
          [
            111.0175,
            2.4614
          ],
          [
            111.0921,
            2.378
          ],
          [
            111.1666,
            2.2947
          ],
          [
            111.2411,
            2.2114
          ],
          [
            111.3156,
            2.128
          ],
          [
            111.39,
            2.0447
          ],
          [
            111.4645,
            1.9614
          ],
          [
            111.539,
            1.878
          ],
          [
            111.6135,
            1.7947
          ],
          [
            111.6879,
            1.7113
          ],
          [
            111.7624,
            1.6279
          ],
          [
            111.8368,
            1.5446
          ],
          [
            111.9112,
            1.4612
          ],
          [
            111.9857,
            1.3779
          ],
          [
            112.0601,
            1.2945
          ],
          [
            112.1345,
            1.2111
          ],
          [
            112.2089,
            1.1278
          ],
          [
            112.2834,
            1.0444
          ],
          [
            112.3578,
            0.961
          ],
          [
            112.4322,
            0.8776
          ],
          [
            112.5066,
            0.7943
          ],
          [
            112.581,
            0.7109
          ],
          [
            112.6554,
            0.6275
          ],
          [
            112.7298,
            0.5441
          ],
          [
            112.8042,
            0.4607
          ],
          [
            112.8785,
            0.3774
          ],
          [
            112.9529,
            0.294
          ],
          [
            113.0273,
            0.2106
          ],
          [
            113.1017,
            0.1272
          ],
          [
            113.1761,
            0.0438
          ],
          [
            113.2505,
            -0.0396
          ],
          [
            113.3249,
            -0.1229
          ],
          [
            113.3993,
            -0.2063
          ],
          [
            113.4736,
            -0.2897
          ],
          [
            113.548,
            -0.3731
          ],
          [
            113.6224,
            -0.4565
          ],
          [
            113.6968,
            -0.5399
          ],
          [
            113.7712,
            -0.6232
          ],
          [
            113.8456,
            -0.7066
          ],
          [
            113.92,
            -0.79
          ]
        ]
      },
      "properties": {
        "partner": "Indonesia",
        "exports_usd_bn": 11.16,
        "imports_usd_bn": 13.22,
        "balance_usd_bn": -2.06,
        "trade_type": "Import-heavy",
        "stroke_width": 2.06,
        "dest_lat": -0.79,
        "dest_lon": 113.92
      }
    },
    {
      "type": "Feature",
      "geometry": {
        "type": "LineString",
        "coordinates": [
          [
            109.45,
            4.21
          ],
          [
            109.8337,
            3.7102
          ],
          [
            110.217,
            3.2102
          ],
          [
            110.5999,
            2.7101
          ],
          [
            110.9825,
            2.2098
          ],
          [
            111.3648,
            1.7095
          ],
          [
            111.747,
            1.209
          ],
          [
            112.129,
            0.7085
          ],
          [
            112.5109,
            0.208
          ],
          [
            112.8928,
            -0.2925
          ],
          [
            113.2747,
            -0.793
          ],
          [
            113.6567,
            -1.2935
          ],
          [
            114.0389,
            -1.7939
          ],
          [
            114.4212,
            -2.2942
          ],
          [
            114.8039,
            -2.7945
          ],
          [
            115.1868,
            -3.2946
          ],
          [
            115.5702,
            -3.7945
          ],
          [
            115.954,
            -4.2943
          ],
          [
            116.3383,
            -4.7939
          ],
          [
            116.7232,
            -5.2933
          ],
          [
            117.1086,
            -5.7925
          ],
          [
            117.4948,
            -6.2913
          ],
          [
            117.8817,
            -6.7899
          ],
          [
            118.2694,
            -7.2882
          ],
          [
            118.658,
            -7.7862
          ],
          [
            119.0475,
            -8.2838
          ],
          [
            119.438,
            -8.7811
          ],
          [
            119.8295,
            -9.2779
          ],
          [
            120.2221,
            -9.7743
          ],
          [
            120.616,
            -10.2702
          ],
          [
            121.011,
            -10.7657
          ],
          [
            121.4074,
            -11.2607
          ],
          [
            121.8051,
            -11.7551
          ],
          [
            122.2042,
            -12.249
          ],
          [
            122.6049,
            -12.7423
          ],
          [
            123.0071,
            -13.235
          ],
          [
            123.4109,
            -13.7271
          ],
          [
            123.8164,
            -14.2185
          ],
          [
            124.2237,
            -14.7093
          ],
          [
            124.6329,
            -15.1993
          ],
          [
            125.0439,
            -15.6886
          ],
          [
            125.4569,
            -16.1771
          ],
          [
            125.872,
            -16.6648
          ],
          [
            126.2891,
            -17.1516
          ],
          [
            126.7085,
            -17.6377
          ],
          [
            127.1301,
            -18.1228
          ],
          [
            127.5541,
            -18.607
          ],
          [
            127.9805,
            -19.0902
          ],
          [
            128.4094,
            -19.5725
          ],
          [
            128.8409,
            -20.0537
          ],
          [
            129.275,
            -20.5339
          ],
          [
            129.7118,
            -21.013
          ],
          [
            130.1515,
            -21.491
          ],
          [
            130.594,
            -21.9678
          ],
          [
            131.0395,
            -22.4434
          ],
          [
            131.4881,
            -22.9178
          ],
          [
            131.9398,
            -23.391
          ],
          [
            132.3948,
            -23.8628
          ],
          [
            132.8531,
            -24.3333
          ],
          [
            133.3148,
            -24.8023
          ],
          [
            133.78,
            -25.27
          ]
        ]
      },
      "properties": {
        "partner": "Australia",
        "exports_usd_bn": 10.94,
        "imports_usd_bn": 7.62,
        "balance_usd_bn": 3.33,
        "trade_type": "Export-heavy",
        "stroke_width": 2.0,
        "dest_lat": -25.27,
        "dest_lon": 133.78
      }
    }
  ]
}